OBJECT_NAME,OBJECT_ID,EPOCH,MEAN_MOTION,ECCENTRICITY,INCLINATION,RA_OF_ASC_NODE,ARG_OF_PERICENTER,MEAN_ANOMALY,EPHEMERIS_TYPE,CLASSIFICATION_TYPE,NORAD_CAT_ID,ELEMENT_SET_NO,REV_AT_EPOCH,BSTAR,MEAN_MOTION_DOT,MEAN_MOTION_DDOT
COSMOS 2541,2019-065A,2026-06-28T05:42:25.329888,2.00603325,.64934964,62.7149,155.9301,272.1059,20.3233,0,U,44552,999,4944,0,.182E-5,0
GAOFEN-10R,2019-066A,2026-06-28T23:03:56.515392,14.83024633,.00071762,98.0502,133.6262,94.7069,265.4964,0,U,44622,999,36412,.14274178E-3,.1106E-4,0
EUTELSAT 5 WEST B,2019-067A,2026-06-28T15:51:25.541856,1.00271835,.00034512,0.0631,9.3094,87.8983,52.3968,0,U,44624,999,2455,0,-.31E-6,0
MEV-1,2019-067B,2026-06-16T22:18:40.152960,1.00269616,.00027946,0.8740,268.9828,179.8034,307.2103,0,U,44625,999,6174,0,-.149E-5,0
PALISADE,2019-069A,2026-06-28T17:15:36.108288,13.11906884,.00104206,87.8878,277.4603,44.6233,315.5732,0,U,44634,999,32062,.13202847E-2,.484E-5,0
TJS-4,2019-070A,2026-06-28T23:07:18.242112,1.00272978,.00042223,0.0464,85.7032,321.0406,300.6792,0,U,44637,999,2465,0,-.159E-5,0
GAOFEN-7,2019-072A,2026-06-28T23:20:44.691072,15.21346979,.00175636,97.2426,240.9945,1.1176,359.0097,0,U,44703,999,36943,.1754878E-3,.3879E-4,0
STARLINK-1008,2019-074B,2026-06-28T21:52:20.514720,15.51576873,.00022757,53.1511,12.5361,215.7120,144.3738,0,U,44714,999,36603,.16360367E-2,.99418E-3,0
STARLINK-1012,2019-074F,2026-06-28T23:16:07.417920,15.51925064,.00022237,53.1555,12.5056,230.1014,129.9801,0,U,44718,999,36603,.12096889E-2,.74073E-3,0
STARLINK-1017,2019-074L,2026-06-28T19:30:56.240352,15.33007332,.00033687,53.0473,15.1112,99.9407,260.1974,0,U,44723,999,36596,.14537345E-2,.46933E-3,0
STARLINK-1020,2019-074N,2026-06-28T20:30:11.983968,15.57522309,.00031457,53.1572,36.2969,172.1286,187.9776,0,U,44725,999,36567,.10310317E-2,.77533E-3,0
STARLINK-1036,2019-074AE,2026-06-28T18:38:03.764544,15.75088120,.00006011,53.0427,3.1103,45.2456,314.8612,0,U,44741,999,36612,.46759147E-3,.71178E-3,0
STARLINK-1039,2019-074AH,2026-06-28T22:00:01.999584,15.30076737,.00037416,53.0583,60.4802,115.3906,72.1820,0,U,44744,999,575,.44626075E-3,.12832E-3,0
STARLINK-1042,2019-074AL,2026-06-28T16:42:40.232736,15.55161036,.00009702,53.0420,279.9827,113.3541,246.7571,0,U,44747,999,36731,.37363994E-3,.25252E-3,0
STARLINK-1043,2019-074AM,2026-06-28T22:07:44.614560,15.64118493,.00003261,53.0487,13.9384,323.4368,36.6624,0,U,44748,999,36599,.4066985E-3,.38934E-3,0
STARLINK-1046,2019-074AQ,2026-06-28T20:37:05.359584,15.57755753,.00052497,53.0469,36.9233,141.3432,218.7956,0,U,44751,999,36566,.10213733E-2,.77513E-3,0
STARLINK-1047,2019-074AR,2026-06-28T17:26:42.217728,15.34908744,.00026242,53.0706,346.3330,164.3021,195.8063,0,U,44752,999,36638,.28277016E-3,.9344E-4,0
STARLINK-1048,2019-074AS,2026-06-28T21:01:05.256192,15.69515755,.00042107,53.0450,345.1213,117.5062,242.6382,0,U,44753,999,36638,.46347779E-3,.55511E-3,0
STARLINK-1063,2019-074BH,2026-06-28T22:11:20.014080,15.51601689,.00018822,53.1548,53.5120,161.2093,198.8987,0,U,44768,999,36547,.11314874E-2,.68402E-3,0
STARLINK-1067,2019-074BL,2026-06-28T22:07:42.031200,15.80666982,.00025336,53.0428,15.1087,263.0692,97.0041,0,U,44771,999,36597,.53038255E-3,.104281E-2,0
STARLINK-1068,2019-074BM,2026-06-28T22:52:18.368832,15.78778361,.00024624,53.0407,348.9078,273.4998,86.5741,0,U,44772,999,36633,.50149986E-3,.90253E-3,0
JILIN-1 GAOFEN 2A,2019-075A,2026-06-28T23:09:48.591936,15.39620330,.0006731,97.4972,264.0319,51.9383,308.2469,0,U,44777,999,36669,.35452647E-3,.13903E-3,0
NINGXIA-1 1,2019-076A,2026-06-28T22:32:18.134592,14.02039780,.00113457,45.0047,127.3335,218.0365,141.9669,0,U,44779,999,33950,.37354331E-4,-.72E-6,0
NINGXIA-1 2,2019-076B,2026-06-28T23:51:55.701216,14.02019536,.00068495,45.0066,127.4263,215.5013,144.5366,0,U,44780,999,33951,.10550392E-3,.32E-6,0
NINGXIA-1 3,2019-076C,2026-06-28T23:28:55.108704,14.02052658,.00100728,44.9988,125.6854,208.3626,151.6661,0,U,44781,999,33951,.29311339E-4,-.85E-6,0
NINGXIA-1 4,2019-076D,2026-06-28T23:09:40.413312,14.02070130,.00122986,45.0064,127.1909,185.1234,174.9476,0,U,44782,999,33947,-.46342552E-4,-.201E-5,0
NINGXIA-1 5,2019-076E,2026-06-28T22:50:51.770976,14.02087385,.00108548,45.0038,126.6122,209.3621,150.6605,0,U,44783,999,33942,-.1966881E-4,-.16E-5,0
KL-ALPHA A,2019-077A,2026-06-28T22:13:52.866912,13.56043961,.00133634,88.9247,221.2812,77.4495,282.8153,0,U,44785,999,32732,.80340796E-4,.69E-6,0
KL-ALPHA B,2019-077B,2026-06-29T00:12:05.649408,13.56003629,.00284608,88.9110,218.8457,113.6096,246.8051,0,U,44786,999,32678,.11146487E-3,.91E-6,0
BEIDOU-3 M22,2019-078A,2026-06-28T08:36:12.538944,1.86227483,.00062953,53.9250,299.4342,52.2108,307.8484,0,U,44793,999,4485,0,-.84E-6,0
