COSMOS 2541             
1 44552U 19065A   26179.23779317  .00000182  00000+0  00000+0 0  9994
2 44552  62.7149 155.9301 6493496 272.1059  20.3233  2.00603325 49447
GAOFEN-10R              
1 44622U 19066A   26179.96107078  .00001106  00000+0  14274-3 0  9991
2 44622  98.0502 133.6262 0007176  94.7069 265.4964 14.83024633364129
EUTELSAT 5 WEST B       
1 44624U 19067A   26179.66071229 -.00000031  00000+0  00000+0 0  9994
2 44624   0.0631   9.3094 0003451  87.8983  52.3968  1.00271835 24559
MEV-1                   
1 44625U 19067B   26167.92963140 -.00000149  00000+0  00000+0 0  9993
2 44625   0.8740 268.9828 0002794 179.8034 307.2103  1.00269616 61744
PALISADE                
1 44634U 19069A   26179.71916792  .00000484  00000+0  13203-2 0  9999
2 44634  87.8878 277.4603 0010420  44.6233 315.5732 13.11906884320627
TJS-4                   
1 44637U 19070A   26179.96340558 -.00000159  00000+0  00000+0 0  9990
2 44637   0.0464  85.7032 0004222 321.0406 300.6792  1.00272978 24651
GAOFEN-7                
1 44703U 19072A   26179.97273948  .00003879  00000+0  17549-3 0  9996
2 44703  97.2426 240.9945 0017563   1.1176 359.0097 15.21346979369436
STARLINK-1008           
1 44714U 19074B   26179.91134855  .00099418  00000+0  16360-2 0  9990
2 44714  53.1511  12.5361 0002275 215.7120 144.3738 15.51576873366036
STARLINK-1012           
1 44718U 19074F   26179.96953030  .00074073  00000+0  12097-2 0  9996
2 44718  53.1555  12.5056 0002223 230.1014 129.9801 15.51925064366035
STARLINK-1017           
1 44723U 19074L   26179.81315093  .00046933  00000+0  14537-2 0  9992
2 44723  53.0473  15.1112 0003368  99.9407 260.1974 15.33007332365968
STARLINK-1020           
1 44725U 19074N   26179.85430537  .00077533  00000+0  10310-2 0  9994
2 44725  53.1572  36.2969 0003145 172.1286 187.9776 15.57522309365673
STARLINK-1036           
1 44741U 19074AE  26179.77643246  .00071178  00000+0  46759-3 0  9992
2 44741  53.0427   3.1103 0000601  45.2456 314.8612 15.75088120366124
STARLINK-1039           
1 44744U 19074AH  26179.91668981  .00012832  00000+0  44626-3 0  9997
2 44744  53.0583  60.4802 0003741 115.3906  72.1820 15.30076737  5755
STARLINK-1042           
1 44747U 19074AL  26179.69629899  .00025252  00000+0  37364-3 0  9991
2 44747  53.0420 279.9827 0000970 113.3541 246.7571 15.55161036367315
STARLINK-1043           
1 44748U 19074AM  26179.92204415  .00038934  00000+0  40670-3 0  9996
2 44748  53.0487  13.9384 0000326 323.4368  36.6624 15.64118493365995
STARLINK-1046           
1 44751U 19074AQ  26179.85908981  .00077513  00000+0  10214-2 0  9997
2 44751  53.0469  36.9233 0005249 141.3432 218.7956 15.57755753365668
STARLINK-1047           
1 44752U 19074AR  26179.72687752  .00009344  00000+0  28277-3 0  9990
2 44752  53.0706 346.3330 0002624 164.3021 195.8063 15.34908744366381
STARLINK-1048           
1 44753U 19074AS  26179.87575528  .00055511  00000+0  46348-3 0  9990
2 44753  53.0450 345.1213 0004210 117.5062 242.6382 15.69515755366382
STARLINK-1063           
1 44768U 19074BH  26179.92453720  .00068402  00000+0  11315-2 0  9999
2 44768  53.1548  53.5120 0001882 161.2093 198.8987 15.51601689365471
STARLINK-1067           
1 44771U 19074BL  26179.92201425  .00104281  00000+0  53038-3 0  9991
2 44771  53.0428  15.1087 0002533 263.0692  97.0041 15.80666982365972
STARLINK-1068           
1 44772U 19074BM  26179.95299038  .00090253  00000+0  50150-3 0  9997
2 44772  53.0407 348.9078 0002462 273.4998  86.5741 15.78778361366335
JILIN-1 GAOFEN 2A       
1 44777U 19075A   26179.96514574  .00013903  00000+0  35453-3 0  9995
2 44777  97.4972 264.0319 0006731  51.9383 308.2469 15.39620330366694
NINGXIA-1 1             
1 44779U 19076A   26179.93909878 -.00000072  00000+0  37354-4 0  9997
2 44779  45.0047 127.3335 0011345 218.0365 141.9669 14.02039780339506
NINGXIA-1 2             
1 44780U 19076B   26179.99439469  .00000032  00000+0  10550-3 0  9992
2 44780  45.0066 127.4263 0006849 215.5013 144.5366 14.02019536339516
NINGXIA-1 3             
1 44781U 19076C   26179.97841561 -.00000085  00000+0  29311-4 0  9996
2 44781  44.9988 125.6854 0010072 208.3626 151.6661 14.02052658339516
NINGXIA-1 4             
1 44782U 19076D   26179.96505108 -.00000201  00000+0 -46343-4 0  9995
2 44782  45.0064 127.1909 0012298 185.1234 174.9476 14.02070130339473
NINGXIA-1 5             
1 44783U 19076E   26179.95198809 -.00000160  00000+0 -19669-4 0  9996
2 44783  45.0038 126.6122 0010854 209.3621 150.6605 14.02087385339421
KL-ALPHA A              
1 44785U 19077A   26179.92630633  .00000069  00000+0  80341-4 0  9993
2 44785  88.9247 221.2812 0013363  77.4495 282.8153 13.56043961327322
KL-ALPHA B              
1 44786U 19077B   26180.00839872  .00000091  00000+0  11146-3 0  9992
2 44786  88.9110 218.8457 0028460 113.6096 246.8051 13.56003629326786
BEIDOU-3 M22            
1 44793U 19078A   26179.35847846 -.00000084  00000+0  00000+0 0  9993
2 44793  53.9250 299.4342 0006295  52.2108 307.8484  1.86227483 44852
